NORAD_CAT_ID,OBJECT_NAME,OBJECT_TYPE,EPOCH,MEAN_MOTION,ECCENTRICITY,INCLINATION,RA_OF_ASC_NODE,ARG_OF_PERICENTER,MEAN_ANOMALY,BSTAR,MEAN_MOTION_DOT,MEAN_MOTION_DDOT,TLE_LINE0,TLE_LINE1,TLE_LINE2,SEMIMAJOR_AXIS,PERIOD,APOGEE,PERIGEE,DECAYED
52460.0,STARLINK-3865,PAYLOAD,2024-03-09 05:44:45,15.08826814,0.0001615,53.2184,98.1934,101.1875,258.9299,1.8141e-06,-2.59e-06,0.0,0 STARLINK-3865,1 52460U 22049K   24069.23942116 -.00000259  00000-0  18141-5 0  9990,2 52460  53.2184  98.1934 0001615 101.1875 258.9299 15.08826814102136,6917.921,95.438,540.903,538.668,0.0
52460.0,STARLINK-3865,PAYLOAD,2024-03-09 07:20:09,15.08827511,0.0001778,53.2175,97.8961,98.1255,261.9939,-0.00012039,-2.203e-05,0.0,0 STARLINK-3865,1 52460U 22049K   24069.30566209 -.00002203  00000-0 -12039-3 0  9993,2 52460  53.2175  97.8961 0001778  98.1255 261.9939 15.08827511101981,6917.919,95.438,541.014,538.554,0.0
52460.0,STARLINK-3865,PAYLOAD,2024-03-09 18:27:50,15.08839637,0.0001598,53.218,95.8128,111.1056,249.0108,8.9383e-05,1.135e-05,0.0,0 STARLINK-3865,1 52460U 22049K   24069.76933678  .00001135  00000-0  89383-4 0  9999,2 52460  53.2180  95.8128 0001598 111.1056 249.0108 15.08839637102219,6917.881,95.438,540.852,538.641,0.0
52460.0,STARLINK-3865,PAYLOAD,2024-03-10 08:46:18,15.08849984,0.0001342,53.2153,93.1352,93.0482,267.0664,0.00021771,3.18e-05,0.0,0 STARLINK-3865,1 52460U 22049K   24070.36549077  .00003180  00000-0  21771-3 0  9991,2 52460  53.2153  93.1352 0001342  93.0482 267.0664 15.08849984102300,6917.85,95.437,540.643,538.786,0.0
52460.0,STARLINK-3865,PAYLOAD,2024-03-10 18:18:37,15.08847402,0.0001314,53.2143,91.351,88.2269,271.8874,0.00022038,3.222e-05,0.0,0 STARLINK-3865,1 52460U 22049K   24070.76293158  .00003222  00000-0  22038-3 0  9995,2 52460  53.2143  91.3510 0001314  88.2269 271.8874 15.08847402102201,6917.858,95.437,540.632,538.814,0.0
52460.0,STARLINK-3865,PAYLOAD,2024-03-11 05:26:19,15.08835858,0.0001365,53.2156,89.2695,88.5168,271.5981,5.5853e-05,6.01e-06,0.0,0 STARLINK-3865,1 52460U 22049K   24071.22661648  .00000601  00000-0  55853-4 0  9990,2 52460  53.2156  89.2695 0001365  88.5168 271.5981 15.08835858102435,6917.893,95.438,540.702,538.814,0.0
52460.0,STARLINK-3865,PAYLOAD,2024-03-11 08:37:05,15.08844345,9.34e-05,53.216,88.675,82.5537,277.5561,-0.00011504,-2.118e-05,0.0,0 STARLINK-3865,1 52460U 22049K   24071.35909218 -.00002118  00000-0 -11504-3 0  9993,2 52460  53.2160  88.6750 0000934  82.5537 277.5561 15.08844345102295,6917.867,95.437,540.378,539.086,0.0
52460.0,STARLINK-3865,PAYLOAD,2024-03-12 10:03:15,15.08847711,0.0001529,53.217,83.9179,88.8197,271.2971,6.0337e-05,6.73e-06,0.0,0 STARLINK-3865,1 52460U 22049K   24072.41893218  .00000673  00000-0  60337-4 0  9994,2 52460  53.2170  83.9179 0001529  88.8197 271.2971 15.08847711102613,6917.857,95.437,540.78,538.664,0.0
52460.0,STARLINK-3865,PAYLOAD,2024-03-13 05:07:53,15.088413,0.0001492,53.2166,80.349,88.8821,271.2342,0.00010598,1.399e-05,0.0,0 STARLINK-3865,1 52460U 22049K   24073.21381395  .00001399  00000-0  10598-3 0  9990,2 52460  53.2166  80.3490 0001492  88.8821 271.2342 15.08841300102731,6917.876,95.437,540.774,538.709,0.0
52460.0,STARLINK-3865,PAYLOAD,2024-03-13 06:43:16,15.08841468,0.0001491,53.2166,80.0516,89.0657,271.0506,0.00010576,1.396e-05,0.0,0 STARLINK-3865,1 52460U 22049K   24073.28005385  .00001396  00000-0  10576-3 0  9992,2 52460  53.2166  80.0516 0001491  89.0657 271.0506 15.08841468102584,6917.876,95.437,540.772,538.709,0.0
52460.0,STARLINK-3865,PAYLOAD,2024-03-14 06:34:03,15.08842996,0.0001474,53.2164,75.5908,89.4074,270.7087,4.897e-05,4.92e-06,0.0,0 STARLINK-3865,1 52460U 22049K   24074.27365361  .00000492  00000-0  48970-4 0  9991,2 52460  53.2164  75.5908 0001474  89.4074 270.7087 15.08842996102738,6917.871,95.437,540.756,538.717,0.0
52460.0,STARLINK-3865,PAYLOAD,2024-03-14 09:44:49,15.08843856,0.0001468,53.2164,74.9958,89.2102,270.9058,5.3327e-05,5.61e-06,0.0,0 STARLINK-3865,1 52460U 22049K   24074.40613257  .00000561  00000-0  53327-4 0  9995,2 52460  53.2164  74.9958 0001468  89.2102 270.9058 15.08843856102915,6917.869,95.437,540.749,538.718,0.0
52460.0,STARLINK-3865,PAYLOAD,2024-03-15 04:49:27,15.08839088,0.0001478,53.2165,71.4266,90.7609,269.3553,2.9338e-05,1.79e-06,0.0,0 STARLINK-3865,1 52460U 22049K   24075.20101590  .00000179  00000-0  29338-4 0  9996,2 52460  53.2165  71.4266 0001478  90.7609 269.3553 15.08839088103038,6917.883,95.438,540.771,538.726,0.0
52460.0,STARLINK-3865,PAYLOAD,2024-03-15 09:35:37,15.0884001,0.0001471,53.2164,70.5341,91.0191,269.097,3.0162e-05,1.92e-06,0.0,0 STARLINK-3865,1 52460U 22049K   24075.39973504  .00000192  00000-0  30162-4 0  9990,2 52460  53.2164  70.5341 0001471  91.0191 269.0970 15.08840010102906,6917.88,95.438,540.763,538.728,0.0
52460.0,STARLINK-3865,PAYLOAD,2024-03-16 06:15:38,15.08837172,0.0001489,53.217,66.6669,94.0307,266.0856,4.5995e-05,4.44e-06,0.0,0 STARLINK-3865,1 52460U 22049K   24076.26085750  .00000444  00000-0  45995-4 0  9994,2 52460  53.2170  66.6669 0001489  94.0307 266.0856 15.08837172103190,6917.889,95.438,540.784,538.724,0.0
52460.0,STARLINK-3865,PAYLOAD,2024-03-16 22:09:29,15.08833713,0.0001537,53.217,63.6941,98.9613,261.1554,3.2522e-05,2.3e-06,0.0,0 STARLINK-3865,1 52460U 22049K   24076.92326224  .00000230  00000-0  32522-4 0  9996,2 52460  53.2170  63.6941 0001537  98.9613 261.1554 15.08833713103139,6917.9,95.438,540.828,538.701,0.0
52460.0,STARLINK-3865,PAYLOAD,2024-03-17 09:17:11,15.08836443,0.0001556,53.2171,61.6133,101.1951,258.9216,4.5778e-05,4.41e-06,0.0,0 STARLINK-3865,1 52460U 22049K   24077.38694104  .00000441  00000-0  45778-4 0  9993,2 52460  53.2171  61.6133 0001556 101.1951 258.9216 15.08836443103361,6917.891,95.438,540.833,538.68,0.0
52460.0,STARLINK-3865,PAYLOAD,2024-03-18 05:57:12,15.08829185,0.0001471,53.2174,57.748,99.1708,260.945,-2.4872e-05,-6.84e-06,0.0,0 STARLINK-3865,1 52460U 22049K   24078.24806116 -.00000684  00000-0 -24872-4 0  9990,2 52460  53.2174  57.7480 0001471  99.1708 260.9450 15.08829185103332,6917.913,95.438,540.796,538.761,0.0
52460.0,STARLINK-3865,PAYLOAD,2024-03-19 04:12:36,15.08832118,0.0001395,53.2171,53.5847,94.6365,265.4787,-1.8145e-05,-5.77e-06,0.0,0 STARLINK-3865,1 52460U 22049K   24079.17542464 -.00000577  00000-0 -18145-4 0  9993,2 52460  53.2171  53.5847 0001395  94.6365 265.4787 15.08832118103630,6917.904,95.438,540.735,538.804,0.0
52460.0,STARLINK-3865,PAYLOAD,2024-03-19 07:23:22,15.088336,0.0001399,53.2172,52.9899,89.6064,270.5089,-5.5002e-06,-3.75e-06,0.0,0 STARLINK-3865,1 52460U 22049K   24079.30790412 -.00000375  00000-0 -55002-5 0  9996,2 52460  53.2172  52.9899 0001399  89.6064 270.5089 15.08833600103498,6917.9,95.438,540.733,538.797,0.0
52460.0,STARLINK-3865,PAYLOAD,2024-03-20 05:38:45,15.08839942,0.0001414,53.2178,48.8257,88.1305,271.9849,0.00020805,3.025e-05,0.0,0 STARLINK-3865,1 52460U 22049K   24080.23525397  .00003025  00000-0  20805-3 0  9992,2 52460  53.2178  48.8257 0001414  88.1305 271.9849 15.08839942103793,6917.881,95.438,540.724,538.767,0.0
52460.0,STARLINK-3865,PAYLOAD,2024-03-21 03:54:11,15.08837126,0.0001618,53.2181,44.664,110.1681,249.9485,0.00014941,2.09e-05,0.0,0 STARLINK-3865,1 52460U 22049K   24081.16263678  .00002090  00000-0  14941-3 0  9991,2 52460  53.2181  44.6640 0001618 110.1681 249.9485 15.08837126103935,6917.889,95.438,540.873,538.635,0.0
52460.0,STARLINK-3865,PAYLOAD,2024-03-21 07:04:58,15.08839798,0.0001548,53.2174,44.0675,106.0013,254.115,0.00032499,4.888e-05,0.0,0 STARLINK-3865,1 52460U 22049K   24081.29512025  .00004888  00000-0  32499-3 0  9993,2 52460  53.2174  44.0675 0001548 106.0013 254.1150 15.08839798103792,6917.881,95.438,540.817,538.675,0.0
52460.0,STARLINK-3865,PAYLOAD,2024-03-22 06:55:44,15.08868439,0.0001707,53.2173,39.6064,80.899,279.2196,0.00076273,0.00011881,0.0,0 STARLINK-3865,1 52460U 22049K   24082.28871209  .00011881  00000-0  76273-3 0  9994,2 52460  53.2173  39.6064 0001707  80.8990 279.2196 15.08868439104101,6917.793,95.436,540.839,538.478,0.0
52460.0,STARLINK-3865,PAYLOAD,2024-03-22 21:14:12,15.08854856,0.0001391,53.2168,36.9319,83.7235,276.3916,2.3451e-05,8.5e-07,0.0,0 STARLINK-3865,1 52460U 22049K   24082.88487036  .00000085  00000-0  23451-4 0  9996,2 52460  53.2168  36.9319 0001391  83.7235 276.3916 15.08854856104196,6917.835,95.437,540.662,538.738,0.0
52460.0,STARLINK-3865,PAYLOAD,2024-03-23 06:46:31,15.08858337,0.0001403,53.2172,35.1463,87.7954,272.3199,0.00012751,1.743e-05,0.0,0 STARLINK-3865,1 52460U 22049K   24083.28230571  .00001743  00000-0  12751-3 0  9993,2 52460  53.2172  35.1463 0001403  87.7954 272.3199 15.08858337104094,6917.824,95.436,540.66,538.719,0.0
52460.0,STARLINK-3865,PAYLOAD,2024-03-24 03:26:31,15.08861402,0.0001692,53.2181,31.279,104.3217,255.7963,0.00017844,2.555e-05,0.0,0 STARLINK-3865,1 52460U 22049K   24084.14341723  .00002555  00000-0  17844-3 0  9991,2 52460  53.2181  31.2790 0001692 104.3217 255.7963 15.08861402104385,6917.815,95.436,540.85,538.509,0.0
52460.0,STARLINK-3865,PAYLOAD,2024-03-24 06:37:17,15.08862057,0.0001688,53.2181,30.6832,104.2254,255.8926,0.00034116,5.149e-05,0.0,0 STARLINK-3865,1 52460U 22049K   24084.27589635  .00005149  00000-0  34116-3 0  9994,2 52460  53.2181  30.6832 0001688 104.2254 255.8926 15.08862057104242,6917.813,95.436,540.846,538.51,0.0
52460.0,STARLINK-3865,PAYLOAD,2024-03-24 20:55:46,15.08847374,0.0002913,53.2175,28.0105,116.5811,243.548,0.00014582,2.033e-05,0.0,0 STARLINK-3865,1 52460U 22049K   24084.87206511  .00002033  00000-0  14582-3 0  9993,2 52460  53.2175  28.0105 0002913 116.5811 243.5480 15.08847374104497,6917.858,95.437,541.738,537.708,0.0
52460.0,STARLINK-3865,PAYLOAD,2024-03-25 03:17:19,15.08843895,0.0001322,53.2178,26.8216,78.3627,281.7513,0.00018441,2.648e-05,0.0,0 STARLINK-3865,1 52460U 22049K   24085.13703033  .00002648  00000-0  18441-3 0  9994,2 52460  53.2178  26.8216 0001322  78.3627 281.7513 15.08843895104532,6917.868,95.437,540.648,538.819,0.0
